start=new Date('2021-09-12T00:00:00.000Z').valueOf();
sats=[{"OBJECT_ID":"2021-012BJ","LAUNCH_DATE":"2021-02-16","MEAN_MOTION_DOT":"0.00019503","FILE":"3113379","TLE_LINE1":"1 47676U 21012BJ  21254.91667824  .00019503  00000-0  14274-3 0  9992","ECCENTRICITY":"0.00037930","SEMIMAJOR_AXIS":"6727.770","DECAY_DATE":null,"COUNTRY_CODE":"US","INCLINATION":"53.0428","EPHEMERIS_TYPE":"0","BSTAR":"0.00014274000000","RA_OF_ASC_NODE":"148.7835","RCS_SIZE":"LARGE","TLE_LINE2":"2 47676  53.0428 148.7835 0003793   5.7977 218.2925 15.73244071  3700","PERIAPSIS":"347.083","OBJECT_TYPE":"PAYLOAD","MEAN_ELEMENT_THEORY":"SGP4","GP_ID":"184535387","MEAN_MOTION_DDOT":"0.0000000000000","TIME_SYSTEM":"UTC","MEAN_ANOMALY":"218.2925","REV_AT_EPOCH":"370","ARG_OF_PERICENTER":"5.7977","OBJECT_NAME":"STARLINK-2083","ELEMENT_SET_NO":"999","CLASSIFICATION_TYPE":"U","PERIOD":"91.531","CENTER_NAME":"EARTH","REF_FRAME":"TEME","SITE":"AFETR","APOAPSIS":"352.186","EPOCH":"2021-09-11T22:00:00.999936","MEAN_MOTION":"15.73244071","NORAD_CAT_ID":"47676"},{"FILE":"3113379","TLE_LINE1":"1 47677U 21012BK  21254.91667824  .00026232  00000-0  17736-2 0  9995","SEMIMAJOR_AXIS":"6925.362","ECCENTRICITY":"0.00015780","OBJECT_ID":"2021-012BK","LAUNCH_DATE":"2021-02-16","MEAN_MOTION_DOT":"0.00026232","OBJECT_TYPE":"PAYLOAD","MEAN_ELEMENT_THEORY":"SGP4","PERIAPSIS":"546.134","TLE_LINE2":"2 47677  53.0544 232.8398 0001578  77.7958  22.1150 15.06395721  3578","RA_OF_ASC_NODE":"232.8398","RCS_SIZE":"LARGE","COUNTRY_CODE":"US","DECAY_DATE":null,"BSTAR":"0.00177360000000","INCLINATION":"53.0544","EPHEMERIS_TYPE":"0","PERIOD":"95.592","CLASSIFICATION_TYPE":"U","ELEMENT_SET_NO":"999","REV_AT_EPOCH":"357","OBJECT_NAME":"STARLINK-2090","ARG_OF_PERICENTER":"77.7958","MEAN_ANOMALY":"22.1150","GP_ID":"184534635","MEAN_MOTION_DDOT":"0.0000000000000","TIME_SYSTEM":"UTC","APOAPSIS":"548.319","SITE":"AFETR","NORAD_CAT_ID":"47677","EPOCH":"2021-09-11T22:00:00.999936","MEAN_MOTION":"15.06395721","REF_FRAME":"TEME","CENTER_NAME":"EARTH"},{"COUNTRY_CODE":"US","DECAY_DATE":null,"EPHEMERIS_TYPE":"0","INCLINATION":"53.0427","BSTAR":"-0.00256820000000","RA_OF_ASC_NODE":"148.7827","RCS_SIZE":"LARGE","PERIAPSIS":"346.504","TLE_LINE2":"2 47678  53.0427 148.7827 0003804  19.2823 204.7989 15.73444622 33487","OBJECT_TYPE":"PAYLOAD","MEAN_ELEMENT_THEORY":"SGP4","OBJECT_ID":"2021-012BL","LAUNCH_DATE":"2021-02-16","MEAN_MOTION_DOT":"-0.00350420","FILE":"3113228","SEMIMAJOR_AXIS":"6727.198","TLE_LINE1":"1 47678U 21012BL  21254.91667824 -.00350420  00000-0 -25682-2 0  9996","ECCENTRICITY":"0.00038040","CENTER_NAME":"EARTH","REF_FRAME":"TEME","APOAPSIS":"351.622","SITE":"AFETR","MEAN_MOTION":"15.73444622","EPOCH":"2021-09-11T22:00:00.999936","NORAD_CAT_ID":"47678","TIME_SYSTEM":"UTC","GP_ID":"184510505","MEAN_MOTION_DDOT":"0.0000000000000","MEAN_ANOMALY":"204.7989","REV_AT_EPOCH":"3348","ARG_OF_PERICENTER":"19.2823","OBJECT_NAME":"STARLINK-2091","ELEMENT_SET_NO":"999","CLASSIFICATION_TYPE":"U","PERIOD":"91.519"},{"CENTER_NAME":"EARTH","REF_FRAME":"TEME","SITE":"AFETR","APOAPSIS":"548.334","EPOCH":"2021-09-11T22:00:00.999936","MEAN_MOTION":"15.06381215","NORAD_CAT_ID":"47679","TIME_SYSTEM":"UTC","GP_ID":"184535137","MEAN_MOTION_DDOT":"0.0000000000000","MEAN_ANOMALY":"230.6106","REV_AT_EPOCH":"356","ARG_OF_PERICENTER":"74.3778","OBJECT_NAME":"STARLINK-2095","ELEMENT_SET_NO":"999","CLASSIFICATION_TYPE":"U","PERIOD":"95.593","COUNTRY_CODE":"US","DECAY_DATE":null,"EPHEMERIS_TYPE":"0","INCLINATION":"53.0531","BSTAR":"0.00180860000000","RA_OF_ASC_NODE":"232.8522","RCS_SIZE":"LARGE","PERIAPSIS":"546.208","TLE_LINE2":"2 47679  53.0531 232.8522 0001535  74.3778 230.6106 15.06381215  3560","OBJECT_TYPE":"PAYLOAD","MEAN_ELEMENT_THEORY":"SGP4","LAUNCH_DATE":"2021-02-16","OBJECT_ID":"2021-012BM","MEAN_MOTION_DOT":"0.00026747","FILE":"3113379","TLE_LINE1":"1 47679U 21012BM  21254.91667824  .00026747  00000-0  18086-2 0  9997","ECCENTRICITY":"0.00015350","SEMIMAJOR_AXIS":"6925.406"},{"LAUNCH_DATE":"2021-03-04","OBJECT_ID":"2021-017A","MEAN_MOTION_DOT":"-0.00000057","FILE":"3113379","ECCENTRICITY":"0.00012520","TLE_LINE1":"1 47722U 21017A   21254.68124306 -.00000057  00000-0  15041-4 0  9995","SEMIMAJOR_AXIS":"6925.338","COUNTRY_CODE":"US","DECAY_DATE":null,"BSTAR":"0.00001504100000","EPHEMERIS_TYPE":"0","INCLINATION":"53.0577","RA_OF_ASC_NODE":"358.8929","RCS_SIZE":"LARGE","TLE_LINE2":"2 47722  53.0577 358.8929 0001252 134.6525 225.4566 15.06403456 30806","PERIAPSIS":"546.336","OBJECT_TYPE":"PAYLOAD","MEAN_ELEMENT_THEORY":"SGP4","MEAN_ANOMALY":"225.4566","GP_ID":"184535392","TIME_SYSTEM":"UTC","MEAN_MOTION_DDOT":"0.0000000000000","REV_AT_EPOCH":"3080","OBJECT_NAME":"STARLINK-2068","ARG_OF_PERICENTER":"134.6525","ELEMENT_SET_NO":"999","PERIOD":"95.592","CLASSIFICATION_TYPE":"U","CENTER_NAME":"EARTH","REF_FRAME":"TEME","APOAPSIS":"548.070","SITE":"AFETR","NORAD_CAT_ID":"47722","MEAN_MOTION":"15.06403456","EPOCH":"2021-09-11T16:20:59.400384"},{"NORAD_CAT_ID":"47723","EPOCH":"2021-09-11T12:42:08.229888","MEAN_MOTION":"15.73206394","SITE":"AFETR","APOAPSIS":"352.959","REF_FRAME":"TEME","CENTER_NAME":"EARTH","PERIOD":"91.533","CLASSIFICATION_TYPE":"U","ELEMENT_SET_NO":"999","OBJECT_NAME":"STARLINK-2107","ARG_OF_PERICENTER":"344.6487","REV_AT_EPOCH":"3138","MEAN_ANOMALY":"15.4385","GP_ID":"184534640","MEAN_MOTION_DDOT":"0.0000000000000","TIME_SYSTEM":"UTC","MEAN_ELEMENT_THEORY":"SGP4","OBJECT_TYPE":"PAYLOAD","TLE_LINE2":"2 47723  53.0431 313.9830 0004782 344.6487  15.4385 15.73206394 31386","PERIAPSIS":"346.525","RCS_SIZE":"LARGE","RA_OF_ASC_NODE":"313.9830","BSTAR":"0.00010362000000","INCLINATION":"53.0431","EPHEMERIS_TYPE":"0","COUNTRY_CODE":"US","DECAY_DATE":null,"ECCENTRICITY":"0.00047820","TLE_LINE1":"1 47723U 21017B   21254.52926192  .00013956  00000-0  10362-3 0  9993","SEMIMAJOR_AXIS":"6727.877","FILE":"3113379","MEAN_MOTION_DOT":"0.00013956","OBJECT_ID":"2021-017B","LAUNCH_DATE":"2021-03-04"},{"FILE":"3113181","SEMIMAJOR_AXIS":"6727.885","TLE_LINE1":"1 47724U 21017C   21254.46561670  .00017341  00000-0  12763-3 0  9992","ECCENTRICITY":"0.00049820","LAUNCH_DATE":"2021-03-04","OBJECT_ID":"2021-017C","MEAN_MOTION_DOT":"0.00017341","TLE_LINE2":"2 47724  53.0433 314.3000 0004982 347.3838  12.7054 15.73203699 31349","PERIAPSIS":"346.398","MEAN_ELEMENT_THEORY":"SGP4","OBJECT_TYPE":"PAYLOAD","DECAY_DATE":null,"COUNTRY_CODE":"US","BSTAR":"0.00012763000000","INCLINATION":"53.0433","EPHEMERIS_TYPE":"0","RA_OF_ASC_NODE":"314.3000","RCS_SIZE":"LARGE","ELEMENT_SET_NO":"999","PERIOD":"91.533","CLASSIFICATION_TYPE":"U","MEAN_ANOMALY":"12.7054","GP_ID":"184507285","TIME_SYSTEM":"UTC","MEAN_MOTION_DDOT":"0.0000000000000","REV_AT_EPOCH":"3134","OBJECT_NAME":"STARLINK-2116","ARG_OF_PERICENTER":"347.3838","REF_FRAME":"TEME","APOAPSIS":"353.101","SITE":"AFETR","NORAD_CAT_ID":"47724","MEAN_MOTION":"15.73203699","EPOCH":"2021-09-11T11:10:29.282880","CENTER_NAME":"EARTH"},{"PERIOD":"95.592","CLASSIFICATION_TYPE":"U","ELEMENT_SET_NO":"999","REV_AT_EPOCH":"3068","OBJECT_NAME":"STARLINK-2125","ARG_OF_PERICENTER":"119.9532","MEAN_ANOMALY":"240.1578","GP_ID":"184535142","TIME_SYSTEM":"UTC","MEAN_MOTION_DDOT":"0.0000000000000","SITE":"AFETR","APOAPSIS":"548.066","NORAD_CAT_ID":"47725","EPOCH":"2021-09-11T17:12:07.354656","MEAN_MOTION":"15.06397456","REF_FRAME":"TEME","CENTER_NAME":"EARTH","FILE":"3113379","SEMIMAJOR_AXIS":"6925.356","TLE_LINE1":"1 47725U 21017D   21254.71675179 -.00000130  00000-0  10130-4 0  9997","ECCENTRICITY":"0.00012200","OBJECT_ID":"2021-017D","LAUNCH_DATE":"2021-03-04","MEAN_MOTION_DOT":"-0.00000130","OBJECT_TYPE":"PAYLOAD","MEAN_ELEMENT_THEORY":"SGP4","TLE_LINE2":"2 47725  53.0576   3.7308 0001220 119.9532 240.1578 15.06397456 30689","PERIAPSIS":"546.376","RA_OF_ASC_NODE":"3.7308","RCS_SIZE":"LARGE","DECAY_DATE":null,"COUNTRY_CODE":"US","BSTAR":"0.00001013000000","INCLINATION":"53.0576","EPHEMERIS_TYPE":"0"},{"CENTER_NAME":"EARTH","APOAPSIS":"547.985","SITE":"AFETR","NORAD_CAT_ID":"47726","EPOCH":"2021-09-11T16:50:52.329984","MEAN_MOTION":"15.06405602","REF_FRAME":"TEME","REV_AT_EPOCH":"3067","OBJECT_NAME":"STARLINK-2126","ARG_OF_PERICENTER":"119.4117","MEAN_ANOMALY":"240.6985","TIME_SYSTEM":"UTC","GP_ID":"184535892","MEAN_MOTION_DDOT":"0.0000000000000","PERIOD":"95.592","CLASSIFICATION_TYPE":"U","ELEMENT_SET_NO":"999","RA_OF_ASC_NODE":"3.7961","RCS_SIZE":"LARGE","DECAY_DATE":null,"COUNTRY_CODE":"US","BSTAR":"0.00013153000000","INCLINATION":"53.0571","EPHEMERIS_TYPE":"0","MEAN_ELEMENT_THEORY":"SGP4","OBJECT_TYPE":"PAYLOAD","PERIAPSIS":"546.408","TLE_LINE2":"2 47726  53.0571   3.7961 0001139 119.4117 240.6985 15.06405602 30672","LAUNCH_DATE":"2021-03-04","OBJECT_ID":"2021-017E","MEAN_MOTION_DOT":"0.00001679","FILE":"3113379","TLE_LINE1":"1 47726U 21017E   21254.70199456  .00001679  00000-0  13153-3 0  9991","ECCENTRICITY":"0.00011390","SEMIMAJOR_AXIS":"6925.331"},{"CENTER_NAME":"EARTH","MEAN_MOTION":"15.73211930","EPOCH":"2021-09-11T15:44:46.277088","NORAD_CAT_ID":"47727","APOAPSIS":"353.321","SITE":"AFETR","REF_FRAME":"TEME","ARG_OF_PERICENTER":"342.0679","OBJECT_NAME":"STARLINK-2129","REV_AT_EPOCH":"3141","GP_ID":"184534141","MEAN_MOTION_DDOT":"0.0000000000000","TIME_SYSTEM":"UTC","MEAN_ANOMALY":"18.0150","CLASSIFICATION_TYPE":"U","PERIOD":"91.532","ELEMENT_SET_NO":"999","RCS_SIZE":"LARGE","RA_OF_ASC_NODE":"313.3480","INCLINATION":"53.0431","EPHEMERIS_TYPE":"0","BSTAR":"0.00013396000000","COUNTRY_CODE":"US","DECAY_DATE":null,"MEAN_ELEMENT_THEORY":"SGP4","OBJECT_TYPE":"PAYLOAD","TLE_LINE2":"2 47727  53.0431 313.3480 0005343 342.0679  18.0150 15.73211930 31419","PERIAPSIS":"346.131","MEAN_MOTION_DOT":"0.00018242","LAUNCH_DATE":"2021-03-04","OBJECT_ID":"2021-017F","SEMIMAJOR_AXIS":"6727.861","TLE_LINE1":"1 47727U 21017F   21254.65609117  .00018242  00000-0  13396-3 0  9999","ECCENTRICITY":"0.00053430","FILE":"3113379"}];
